STARLINK-2022           
1 47643U 21012Z   24236.53352348  .00012414  00000+0  85137-3 0  9998
2 47643  53.0546  59.7214 0001408  96.8957 263.2192 15.06376511195380
